ATLAS CENTAUR 2         
1 00694U 63047A   26100.00425546  .00002915  00000+0  34622-3 0  9990
2 00694  30.3561  20.6232 0546789 356.2864   3.3783 14.12221880136055
THOR AGENA D R/B        
1 00733U 64002A   26100.26894044  .00000193  00000+0  85935-4 0  9997
2 00733  99.1205 115.3262 0033225 164.8981 195.3202 14.34037705242827
SL-3 R/B                
1 00877U 64053B   26099.76076430  .00000258  00000+0  74128-4 0  9999
2 00877  65.0765 240.1381 0080767 282.4669  76.7403 14.61391958271337
SL-8 R/B                
1 02802U 67045B   26100.26931059  .00000311  00000+0  93672-4 0  9993
2 02802  74.0097 289.1101 0065140 288.5386  70.8702 14.45647704 93580
SL-8 R/B                
1 03230U 68040B   26099.85313609  .00002872  00000+0  21251-3 0  9999
2 03230  74.0301 250.0007 0023360  60.7808 299.5713 15.03490887 94691
OAO 2                   
1 03597U 68110A   26100.24122099  .00000202  00000+0  59608-4 0  9993
2 03597  34.9927  89.0562 0004970  91.5221 268.6039 14.47326234 23678
ISIS 1                  
1 03669U 69009A   26100.13687892  .00000096  00000+0  58101-4 0  9994
2 03669  88.4481 151.8734 1707591  25.7194 341.9559 11.30422329352087
SERT 2                  
1 04327U 70009A   26100.30753064  .00000050  00000+0  12478-3 0  9998
2 04327  99.2798  41.6783 0005777  84.4755  69.3266 13.58733788784183
SL-3 R/B                
1 05118U 71028B   26100.16312740  .00044690  00000+0  46695-3 0  9991
2 05118  81.2377  13.0787 0015998 161.9233 198.2594 15.64114987993586
ASTEX 1                 
1 05560U 71089A   26100.20486097  .00000371  00000+0  94453-4 0  9995
2 05560  92.7072 161.9422 0014744 346.6739  13.4076 14.50803528866870
SL-8 R/B                
1 05730U 71119B   26100.30792126  .00007771  00000+0  40611-3 0  9999
2 05730  73.8841 116.5910 0545686  76.5231 289.6106 14.38440544660033
OAO 3 (COPERNICUS)      
1 06153U 72065A   26100.32208252  .00000295  00000+0  64759-4 0  9998
2 06153  35.0044 117.0862 0006112  56.9515 320.1598 14.60024078850822
ATLAS CENTAUR R/B       
1 06155U 72065B   26100.11079670  .00001100  00000+0  15255-3 0  9999
2 06155  35.0005 121.5980 0034165 274.5885  85.0913 14.77780811845913
SL-8 R/B                
1 08459U 75112B   26100.01321978  .00000200  00000+0  74468-4 0  9996
2 08459  74.0611 321.2942 0014863  42.0461 318.1830 14.38222392636374
SL-3 R/B                
1 10114U 77057B   26100.24106087  .00012522  00000+0  25449-3 0  9998
2 10114  97.5815 273.5800 0007581 160.7581 199.3956 15.46436348673202
SEASAT 1                
1 10967U 78064A   26100.17669585  .00000297  00000+0  12147-3 0  9999
2 10967 108.0068 191.5640 0002787 269.7474  90.3353 14.46189357511061
SL-14 R/B               
1 11267U 79011B   26100.30408014  .00000695  00000+0  66050-4 0  9994
2 11267  82.5227  66.5633 0014852 316.3689  43.6356 14.91954139533497
