[{"OBJECT_NAME":"ATLAS CENTAUR 2","OBJECT_ID":"1963-047A","EPOCH":"2026-04-10T00:06:07.671744","MEAN_MOTION":14.1222188,"ECCENTRICITY":0.05467899,"INCLINATION":30.3561,"RA_OF_ASC_NODE":20.6232,"ARG_OF_PERICENTER":356.2864,"MEAN_ANOMALY":3.3783,"EPHEMERIS_TYPE":0,"CLASSIFICATION_TYPE":"U","NORAD_CAT_ID":694,"ELEMENT_SET_NO":999,"REV_AT_EPOCH":13605,"BSTAR":0.00034621628,"MEAN_MOTION_DOT":2.915e-5,"MEAN_MOTION_DDOT":0},{"OBJECT_NAME":"THOR AGENA D R/B","OBJECT_ID":"1964-002A","EPOCH":"2026-04-10T06:27:16.454016","MEAN_MOTION":14.34037705,"ECCENTRICITY":0.00332257,"INCLINATION":99.1205,"RA_OF_ASC_NODE":115.3262,"ARG_OF_PERICENTER":164.8981,"MEAN_ANOMALY":195.3202,"EPHEMERIS_TYPE":0,"CLASSIFICATION_TYPE":"U","NORAD_CAT_ID":733,"ELEMENT_SET_NO":999,"REV_AT_EPOCH":24282,"BSTAR":8.5934849e-5,"MEAN_MOTION_DOT":1.93e-6,"MEAN_MOTION_DDOT":0},{"OBJECT_NAME":"SL-3 R/B","OBJECT_ID":"1964-053B","EPOCH":"2026-04-09T18:15:30.035520","MEAN_MOTION":14.61391958,"ECCENTRICITY":0.0080767,"INCLINATION":65.0765,"RA_OF_ASC_NODE":240.1381,"ARG_OF_PERICENTER":282.4669,"MEAN_ANOMALY":76.7403,"EPHEMERIS_TYPE":0,"CLASSIFICATION_TYPE":"U","NORAD_CAT_ID":877,"ELEMENT_SET_NO":999,"REV_AT_EPOCH":27133,"BSTAR":7.4128086e-5,"MEAN_MOTION_DOT":2.58e-6,"MEAN_MOTION_DDOT":0},{"OBJECT_NAME":"SL-8 R/B","OBJECT_ID":"1967-045B","EPOCH":"2026-04-10T06:27:48.434976","MEAN_MOTION":14.45647704,"ECCENTRICITY":0.00651401,"INCLINATION":74.0097,"RA_OF_ASC_NODE":289.1101,"ARG_OF_PERICENTER":288.5386,"MEAN_ANOMALY":70.8702,"EPHEMERIS_TYPE":0,"CLASSIFICATION_TYPE":"U","NORAD_CAT_ID":2802,"ELEMENT_SET_NO":999,"REV_AT_EPOCH":9358,"BSTAR":9.3671539e-5,"MEAN_MOTION_DOT":3.11e-6,"MEAN_MOTION_DDOT":0},{"OBJECT_NAME":"SL-8 R/B","OBJECT_ID":"1968-040B","EPOCH":"2026-04-09T20:28:30.958176","MEAN_MOTION":15.03490887,"ECCENTRICITY":0.00233609,"INCLINATION":74.0301,"RA_OF_ASC_NODE":250.0007,"ARG_OF_PERICENTER":60.7808,"MEAN_ANOMALY":299.5713,"EPHEMERIS_TYPE":0,"CLASSIFICATION_TYPE":"U","NORAD_CAT_ID":3230,"ELEMENT_SET_NO":999,"REV_AT_EPOCH":9469,"BSTAR":0.00021250869,"MEAN_MOTION_DOT":2.872e-5,"MEAN_MOTION_DDOT":0},{"OBJECT_NAME":"OAO 2","OBJECT_ID":"1968-110A","EPOCH":"2026-04-10T05:47:21.493536","MEAN_MOTION":14.47326234,"ECCENTRICITY":0.00049707,"INCLINATION":34.9927,"RA_OF_ASC_NODE":89.0562,"ARG_OF_PERICENTER":91.5221,"MEAN_ANOMALY":268.6039,"EPHEMERIS_TYPE":0,"CLASSIFICATION_TYPE":"U","NORAD_CAT_ID":3597,"ELEMENT_SET_NO":999,"REV_AT_EPOCH":2367,"BSTAR":5.9608291e-5,"MEAN_MOTION_DOT":2.02e-6,"MEAN_MOTION_DDOT":0},{"OBJECT_NAME":"ISIS 1","OBJECT_ID":"1969-009A","EPOCH":"2026-04-10T03:17:06.338688","MEAN_MOTION":11.30422329,"ECCENTRICITY":0.17075915,"INCLINATION":88.4481,"RA_OF_ASC_NODE":151.8734,"ARG_OF_PERICENTER":25.7194,"MEAN_ANOMALY":341.9559,"EPHEMERIS_TYPE":0,"CLASSIFICATION_TYPE":"U","NORAD_CAT_ID":3669,"ELEMENT_SET_NO":999,"REV_AT_EPOCH":35208,"BSTAR":5.8100949e-5,"MEAN_MOTION_DOT":9.6e-7,"MEAN_MOTION_DDOT":0},{"OBJECT_NAME":"SERT 2","OBJECT_ID":"1970-009A","EPOCH":"2026-04-10T07:22:50.647296","MEAN_MOTION":13.58733788,"ECCENTRICITY":0.00057775,"INCLINATION":99.2798,"RA_OF_ASC_NODE":41.6783,"ARG_OF_PERICENTER":84.4755,"MEAN_ANOMALY":69.3266,"EPHEMERIS_TYPE":0,"CLASSIFICATION_TYPE":"U","NORAD_CAT_ID":4327,"ELEMENT_SET_NO":999,"REV_AT_EPOCH":78418,"BSTAR":0.00012478008,"MEAN_MOTION_DOT":5.0e-7,"MEAN_MOTION_DDOT":0},{"OBJECT_NAME":"SL-3 R/B","OBJECT_ID":"1971-028B","EPOCH":"2026-04-10T03:54:54.207360","MEAN_MOTION":15.64114987,"ECCENTRICITY":0.00159989,"INCLINATION":81.2377,"RA_OF_ASC_NODE":13.0787,"ARG_OF_PERICENTER":161.9233,"MEAN_ANOMALY":198.2594,"EPHEMERIS_TYPE":0,"CLASSIFICATION_TYPE":"U","NORAD_CAT_ID":5118,"ELEMENT_SET_NO":999,"REV_AT_EPOCH":99358,"BSTAR":0.00046694611,"MEAN_MOTION_DOT":0.0004469,"MEAN_MOTION_DDOT":0},{"OBJECT_NAME":"ASTEX 1","OBJECT_ID":"1971-089A","EPOCH":"2026-04-10T04:54:59.987808","MEAN_MOTION":14.50803528,"ECCENTRICITY":0.00147447,"INCLINATION":92.7072,"RA_OF_ASC_NODE":161.9422,"ARG_OF_PERICENTER":346.6739,"MEAN_ANOMALY":13.4076,"EPHEMERIS_TYPE":0,"CLASSIFICATION_TYPE":"U","NORAD_CAT_ID":5560,"ELEMENT_SET_NO":999,"REV_AT_EPOCH":86687,"BSTAR":9.445273e-5,"MEAN_MOTION_DOT":3.71e-6,"MEAN_MOTION_DDOT":0},{"OBJECT_NAME":"SL-8 R/B","OBJECT_ID":"1971-119B","EPOCH":"2026-04-10T07:23:24.396864","MEAN_MOTION":14.38440544,"ECCENTRICITY":0.05456865,"INCLINATION":73.8841,"RA_OF_ASC_NODE":116.591,"ARG_OF_PERICENTER":76.5231,"MEAN_ANOMALY":289.6106,"EPHEMERIS_TYPE":0,"CLASSIFICATION_TYPE":"U","NORAD_CAT_ID":5730,"ELEMENT_SET_NO":999,"REV_AT_EPOCH":66003,"BSTAR":0.00040611041,"MEAN_MOTION_DOT":7.771e-5,"MEAN_MOTION_DDOT":0},{"OBJECT_NAME":"OAO 3 (COPERNICUS)","OBJECT_ID":"1972-065A","EPOCH":"2026-04-10T07:43:47.929728","MEAN_MOTION":14.60024078,"ECCENTRICITY":0.0006112,"INCLINATION":35.0044,"RA_OF_ASC_NODE":117.0862,"ARG_OF_PERICENTER":56.9515,"MEAN_ANOMALY":320.1598,"EPHEMERIS_TYPE":0,"CLASSIFICATION_TYPE":"U","NORAD_CAT_ID":6153,"ELEMENT_SET_NO":999,"REV_AT_EPOCH":85082,"BSTAR":6.475886e-5,"MEAN_MOTION_DOT":2.95e-6,"MEAN_MOTION_DDOT":0},{"OBJECT_NAME":"ATLAS CENTAUR R/B","OBJECT_ID":"1972-065B","EPOCH":"2026-04-10T02:39:32.834880","MEAN_MOTION":14.77780811,"ECCENTRICITY":0.00341655,"INCLINATION":35.0005,"RA_OF_ASC_NODE":121.598,"ARG_OF_PERICENTER":274.5885,"MEAN_ANOMALY":85.0913,"EPHEMERIS_TYPE":0,"CLASSIFICATION_TYPE":"U","NORAD_CAT_ID":6155,"ELEMENT_SET_NO":999,"REV_AT_EPOCH":84591,"BSTAR":0.00015255149,"MEAN_MOTION_DOT":1.1e-5,"MEAN_MOTION_DDOT":0},{"OBJECT_NAME":"SL-8 R/B","OBJECT_ID":"1975-112B","EPOCH":"2026-04-10T00:19:02.188992","MEAN_MOTION":14.38222392,"ECCENTRICITY":0.00148631,"INCLINATION":74.0611,"RA_OF_ASC_NODE":321.2942,"ARG_OF_PERICENTER":42.0461,"MEAN_ANOMALY":318.183,"EPHEMERIS_TYPE":0,"CLASSIFICATION_TYPE":"U","NORAD_CAT_ID":8459,"ELEMENT_SET_NO":999,"REV_AT_EPOCH":63637,"BSTAR":7.4467849e-5,"MEAN_MOTION_DOT":2.0e-6,"MEAN_MOTION_DDOT":0},{"OBJECT_NAME":"SL-3 R/B","OBJECT_ID":"1977-057B","EPOCH":"2026-04-10T05:47:07.659168","MEAN_MOTION":15.46436348,"ECCENTRICITY":0.00075815,"INCLINATION":97.5815,"RA_OF_ASC_NODE":273.58,"ARG_OF_PERICENTER":160.7581,"MEAN_ANOMALY":199.3956,"EPHEMERIS_TYPE":0,"CLASSIFICATION_TYPE":"U","NORAD_CAT_ID":10114,"ELEMENT_SET_NO":999,"REV_AT_EPOCH":67320,"BSTAR":0.00025449134,"MEAN_MOTION_DOT":0.00012522,"MEAN_MOTION_DDOT":0},{"OBJECT_NAME":"SEASAT 1","OBJECT_ID":"1978-064A","EPOCH":"2026-04-10T04:14:26.521440","MEAN_MOTION":14.46189357,"ECCENTRICITY":0.00027871,"INCLINATION":108.0068,"RA_OF_ASC_NODE":191.564,"ARG_OF_PERICENTER":269.7474,"MEAN_ANOMALY":90.3353,"EPHEMERIS_TYPE":0,"CLASSIFICATION_TYPE":"U","NORAD_CAT_ID":10967,"ELEMENT_SET_NO":999,"REV_AT_EPOCH":51106,"BSTAR":0.00012146727,"MEAN_MOTION_DOT":2.97e-6,"MEAN_MOTION_DDOT":0},{"OBJECT_NAME":"SL-14 R/B","OBJECT_ID":"1979-011B","EPOCH":"2026-04-10T07:17:52.524096","MEAN_MOTION":14.91954139,"ECCENTRICITY":0.0014852,"INCLINATION":82.5227,"RA_OF_ASC_NODE":66.5633,"ARG_OF_PERICENTER":316.3689,"MEAN_ANOMALY":43.6356,"EPHEMERIS_TYPE":0,"CLASSIFICATION_TYPE":"U","NORAD_CAT_ID":11267,"ELEMENT_SET_NO":999,"REV_AT_EPOCH":53349,"BSTAR":6.6049731e-5,"MEAN_MOTION_DOT":6.95e-6,"MEAN_MOTION_DDOT":0}]
